STARLINK-2167
1 28559C 21041G   21325.15903684  .00000029  00000-0  19384-5 0  3252
2 28559  53.0516 337.5176 0001749  64.1001 227.6894 15.06391953    19
